objectid,zip,name,zip_type,state,state_fips,county_fips,county_name,s3dzip,lat,lon,empty_col,tot_res_cnt,mfdu,sfdu,box_cnt,biz_cnt,relver,color,globalid,shape_st_area,shape_st_length
4,15007,BAKERSTOWN,NON-UNIQUE,PA,42,42003,ALLEGHENY,150,40.65668829,-79.93212966, ,173,0,107,66,55,1.9.3,10,{4768B869-6BC2-4B77-8DC7-A3BB678888D1},13371212.1917725,20129.3081236352
5,15014,BRACKENRIDGE,NON-UNIQUE,PA,42,42003,ALLEGHENY,150,40.60796437,-79.74083155, ,1493,59,1396,38,76,1.9.3,5,{D7938129-8427-49A4-8C6C-3A19848432D4},15153375.583252,16855.5464285013
6,15015,BRADFORD WOODS,NON-UNIQUE,PA,42,42003,ALLEGHENY,150,40.6364525,-80.08523523, ,525,0,430,95,56,1.9.3,10,{BABB5D5E-1FF4-4E03-BBAB-B84CBB5BFB31},26137182.4910889,33453.2621951169
8,15018,BUENA VISTA,NON-UNIQUE,PA,42,42003,ALLEGHENY,150,40.28940773,-79.79123687, ,415,0,286,129,22,1.9.3,11,{4E2C2FAA-7976-4BEF-8119-BBB65C2F7014},60962102.5350037,76802.2327559588
14,15034,DRAVOSBURG,NON-UNIQUE,PA,42,42003,ALLEGHENY,150,,, ,979,0,950,29,104,1.9.3,6,{C7A863B3-22E1-42B1-A368-872E83B4A9CC},29350042.1168823,26075.2468621171
15,15030,CREIGHTON,NON-UNIQUE,PA,42,42003,ALLEGHENY,150,40.58806677,-79.77999562, ,532,1,491,40,64,1.9.3,0,{5E20E33C-05C8-49F4-A63F-B29340E9BC6E},46031782.0288086,61125.2059714738
19,15035,EAST MCKEESPORT,NON-UNIQUE,PA,42,42003,ALLEGHENY,150,40.39846801,-79.81833267, ,1141,51,1062,28,70,1.9.3,10,{5727D3B9-700D-43F7-B621-1FFACDA2A5B9},11959237.5730286,18567.5465161071
23,15046,CRESCENT,NON-UNIQUE,PA,42,42003,ALLEGHENY,150,40.55563839,-80.22832411, ,1116,0,1060,56,63,1.9.3,0,{14AA359E-C043-4826-B9E7-450800598D51},62264379.2061157,41170.1950131588
25,15049,HARWICK,NON-UNIQUE,PA,42,42003,ALLEGHENY,150,40.55594268,-79.80560481, ,546,0,463,83,23,1.9.3,15,{CEC8C572-1900-45CE-88AF-EC3E199852EF},18921596.347229,26044.3527021944
30,15064,MORGAN,NON-UNIQUE,PA,42,42003,ALLEGHENY,150,40.3570462,-80.14755828, ,197,0,160,37,54,1.9.3,12,{1FA645FE-C42C-4C6F-A8F7-575717E417F3},16646642.1779785,35948.483812897
38,15082,STURGEON,PO BOX,PA,42,42003,ALLEGHENY,150,40.38088936,-80.21310333, ,175,0,1,174,15,1.9.3,0,{68837542-C476-4E60-86D8-F67AD536E4E0},5306381.96765137,17284.0437293922
49,15110,DUQUESNE,NON-UNIQUE,PA,42,42003,ALLEGHENY,151,40.37243097,-79.85005849, ,2833,318,2383,132,169,1.9.3,6,{0572D3C0-9701-472C-B109-0FB3F73FC8EA},56208489.9165955,33842.8455296399
50,15112,EAST PITTSBURGH,NON-UNIQUE,PA,42,42003,ALLEGHENY,151,40.406067,-79.83876378, ,1830,154,1595,81,141,1.9.3,12,{5B39C659-1E8C-4F25-AAA4-DCE9E7E6C0B6},22348819.9805908,30176.0539118329
55,15129,SOUTH PARK,NON-UNIQUE,PA,42,42003,ALLEGHENY,151,40.29378767,-79.9950397, ,4690,836,3674,180,183,1.9.3,16,{5F1C6CBE-D261-464A-9F1D-673D4D5F1533},224214520.516754,101112.200060425
56,15131,MCKEESPORT,NON-UNIQUE,PA,42,42003,ALLEGHENY,151,40.32513782,-79.80337403, ,3997,557,3440,0,286,1.9.3,8,{FA436401-5594-4ACC-9EDF-7B2AC0984C11},190801600.213562,109243.374812018
57,15132,MCKEESPORT,NON-UNIQUE,PA,42,42003,ALLEGHENY,151,40.3392329,-79.84240455, ,9746,1144,8558,44,722,1.9.3,0,{0AD7F458-B319-4527-B1DB-235637FB63F6},175602196.691223,89817.921182798
58,15133,MCKEESPORT,NON-UNIQUE,PA,42,42003,ALLEGHENY,151,40.32924545,-79.86396125, ,2949,121,2828,0,62,1.9.3,1,{D38FA47F-3240-46A4-9096-2A896FB4B4A6},96766099.8398132,54365.2399284876
59,15135,MCKEESPORT,NON-UNIQUE,PA,42,42003,ALLEGHENY,151,40.30216627,-79.81469332, ,2192,280,1879,33,93,1.9.3,5,{760085A3-2A1B-44A4-9858-AEA6311684E9},109202619.726257,78385.7601038421
61,15137,NORTH VERSAILLES,NON-UNIQUE,PA,42,42003,ALLEGHENY,151,40.3780742,-79.80876604, ,5010,788,4114,108,384,1.9.3,15,{357A761E-C584-47FB-854E-E8C91C75BE69},220183664.763214,109466.322613423
66,15144,SPRINGDALE,NON-UNIQUE,PA,42,42003,ALLEGHENY,151,40.54658212,-79.78534981, ,1976,159,1789,28,143,1.9.3,10,{17187878-280E-4EB3-A513-BC21F819466A},74392817.7546997,52397.378939276
70,15148,WILMERDING,NON-UNIQUE,PA,42,42003,ALLEGHENY,151,40.39963912,-79.81058502, ,1416,216,1166,34,109,1.9.3,5,{17E6865C-36C0-4B7C-9809-3D8720059F19},38116626.4855042,47791.7813101341
73,15203,PITTSBURGH,NON-UNIQUE,PA,42,42003,ALLEGHENY,152,40.42585758,-79.97513245, ,5709,733,4799,177,888,1.9.3,12,{9B363D48-EAE2-4F39-AD8F-22506F5C60AA},48187458.3483887,46998.8672279599
81,15211,PITTSBURGH,NON-UNIQUE,PA,42,42003,ALLEGHENY,152,40.43077203,-80.0151459, ,5893,901,4922,70,206,1.9.3,10,{4947BA7C-BC90-4825-B540-DA3311566C49},43394972.3510132,35501.9104320557
83,15213,PITTSBURGH,NON-UNIQUE,PA,42,42003,ALLEGHENY,152,40.4430908,-79.95520627, ,11666,6940,4487,239,947,1.9.3,6,{EAF54ABC-E455-4BCB-B221-D579E1242754},76369040.7784729,62844.8956351353
94,15224,PITTSBURGH,NON-UNIQUE,PA,42,42003,ALLEGHENY,152,40.46426325,-79.94511825, ,5113,845,4063,205,495,1.9.3,0,{38CD0F50-BE92-4378-A4FA-018342B795B0},27721638.0067139,34226.7742046225
95,15225,PITTSBURGH,NON-UNIQUE,PA,42,42003,ALLEGHENY,152,40.50688702,-80.11220909, ,603,0,578,25,150,1.9.3,16,{73BB6FA5-B8CB-40D8-A292-C8AC931AEFC8},65384475.5302734,58702.9992217382
100,15232,PITTSBURGH,NON-UNIQUE,PA,42,42003,ALLEGHENY,152,40.45294179,-79.93224793, ,6796,4113,2604,79,441,1.9.3,5,{14540988-6754-4A8C-A748-6CB303426CC4},23198184.8204956,39115.510344861
107,15239,PITTSBURGH,NON-UNIQUE,PA,42,42003,ALLEGHENY,152,40.48743511,-79.73946234, ,8522,164,8256,102,532,1.9.3,6,{F85E598B-BC93-40B3-9C95-192AC8A5F4EC},474251332.882263,150362.684800839
111,15261,PITTSBURGH,UNIQUE,PA,42,42003,ALLEGHENY,152,40.44655133,-79.95955977, ,0,0,0,0,0,1.9.3,5,{29ADE7CC-CBDF-49B0-B6C1-EB1045BE6051},308181.014648438,3041.50337415924
112,15275,PITTSBURGH,UNIQUE,PA,42,42003,ALLEGHENY,152,40.45235707,-80.18180181, ,0,0,0,0,181,1.9.3,13,{6879EEB7-CBC2-4D52-B5D9-A5D5A8CEB5BF},38047079.3953247,55048.4266971964
113,15290,PITTSBURGH,UNIQUE,PA,42,42003,ALLEGHENY,152,40.45866861,-80.02204336, ,0,0,0,0,1,1.9.3,10,{930CCE98-4F12-478B-A825-6D529F798805},943404.954223633,4925.95612909339
154,15006,BAIRDFORD,PO BOX,PA,42,42003,ALLEGHENY,150,40.63632608,-79.9466552, ,,,,,,1.9.3,12,{E34895F1-D822-4D51-ADD7-5A6EFD3CA15D},3706481.42407227,16964.4999485231
183,15051,INDIANOLA,NON-UNIQUE,PA,42,42003,ALLEGHENY,150,40.57959175,-79.86609649, ,243,0,201,42,45,1.9.3,10,{1A3867AA-9625-453F-83EA-73EBDFCB5927},12060159.0457153,18828.5182263709
216,15223,PITTSBURGH,NON-UNIQUE,PA,42,42003,ALLEGHENY,152,40.50611141,-79.95117001, ,3532,232,3272,28,283,1.9.3,12,{BF739C67-EFAE-4BAA-8CC3-BFC29FAEAE55},57907627.574646,57572.682741975
237,15227,PITTSBURGH,NON-UNIQUE,PA,42,42003,ALLEGHENY,152,40.381338,-79.969707, ,13011,1522,11412,77,622,1.9.3,16,{E0E4D041-A766-4D78-8127-DFFBD17309A8},167853669.208893,127309.358343785
256,15282,PITTSBURGH,UNIQUE,PA,42,42003,ALLEGHENY,152,40.44291632,-79.98815211, ,,,,,,1.9.3,11,{90C0B91D-1527-4729-AFEE-C388E634A907},268656.100097656,2301.32381191186
257,15276,PITTSBURGH,UNIQUE,PA,42,42003,ALLEGHENY,151,40.551918,-79.939899, ,,,,,,1.9.3,5,{9374F636-799D-4638-94BE-24CF19D4CC1A},3569755.206604,9468.9434971093
258,15083,SUTERSVILLE,NON-UNIQUE,PA,42,42003,ALLEGHENY,150,40.28940773,-79.79123687, ,,,,,,1.9.3,11,{BB0BB666-A223-45A9-8674-A950C0F5983C},7938963.44207764,19272.491630008
268,15088,WEST ELIZABETH,NON-UNIQUE,PA,42,42003,ALLEGHENY,150,40.25059259,-79.86374335, ,,,,,,1.9.3,10,{3F6DAE87-C96B-403D-B589-CB7F3696195C},8350178.87445068,24572.8437029862
277,15116,GLENSHAW,NON-UNIQUE,PA,42,42003,ALLEGHENY,151,40.551918,-79.939899, ,6093,86,5931,76,374,1.9.3,5,{993779CB-C9F6-4CDC-AA88-A7C006E9E836},217504951.802002,126418.810747539
296,15122,WEST MIFFLIN,NON-UNIQUE,PA,42,42003,ALLEGHENY,151,40.36062103,-79.90927201, ,9167,631,8491,45,472,1.9.3,5,{DF2BE71D-F1BC-4056-90F7-C0698B4FDA01},361511152.424438,163434.471755287
298,15204,PITTSBURGH,NON-UNIQUE,PA,42,42003,ALLEGHENY,152,40.45436768,-80.05936821, ,3645,112,3484,49,139,1.9.3,10,{478BB633-2446-4D0B-AA3F-EFBEF91D5202},55186568.3005981,39471.0581551696
302,15216,PITTSBURGH,NON-UNIQUE,PA,42,42003,ALLEGHENY,152,40.40180177,-80.03433406, ,11008,1817,9054,137,535,1.9.3,6,{3138C4F5-5CEE-43E0-8933-0F0E7AA1EEBA},95072943.4640808,80998.3085365187
307,15102,BETHEL PARK,NON-UNIQUE,PA,42,42003,ALLEGHENY,151,40.32221149,-80.03642213, ,12769,1668,10948,153,861,1.9.3,6,{2EB816EA-46E9-4C7B-886A-99FA183C4EC3},294155377.793671,101542.790202859
309,15234,PITTSBURGH,NON-UNIQUE,PA,42,42003,ALLEGHENY,152,40.36961247,-80.01796048, ,6819,1034,5562,223,722,1.9.3,5,{417599F8-E171-4B7C-9BED-1E224FA43843},93918740.0300598,87465.2285647798
336,15017,BRIDGEVILLE,NON-UNIQUE,PA,42,42003,ALLEGHENY,150,40.34316582,-80.13009131, ,7437,1216,6065,156,865,1.9.3,6,{C8461EEC-98FC-41AC-BFF6-4877D311C01A},293843117.847595,130883.064903603
370,15215,PITTSBURGH,NON-UNIQUE,PA,42,42003,ALLEGHENY,152,40.49616648,-79.91664792, ,5617,544,5014,59,486,1.9.3,7,{B4B258BE-AD4C-428E-B5F6-BF42D3C37FF9},167816596.756958,69647.3479607358
376,15139,OAKMONT,NON-UNIQUE,PA,42,42003,ALLEGHENY,151,40.53502586,-79.88243085, ,3161,465,2616,80,379,1.9.3,6,{7921DED5-1C74-4B9A-BCE0-3911444F9916},79554518.8250732,45520.3208487122
460,15028,COULTERS,PO BOX,PA,42,42003,ALLEGHENY,150,40.295303,-79.801633,,87,,1,86,3,1.9.3,6,{C6C99F73-FF1E-4BF8-B844-F3B6496E9EF9},8293716.10830688,15909.8766841774
527,15145,TURTLE CREEK,NON-UNIQUE,PA,42,42003,ALLEGHENY,151,40.41645483,-79.82407788, ,3559,307,3164,88,236,1.9.3,17,{E2ED0CB5-5DDA-4EF4-AE3F-BA6BF6002261},57210408.3513489,66680.254759091
592,15104,BRADDOCK,NON-UNIQUE,PA,42,42003,ALLEGHENY,151,40.4017865,-79.85603257, ,4136,427,3564,145,254,1.9.3,10,{6FCB909B-8979-4323-8B89-4A7AD707C3BF},79297702.0808411,45881.640356244
678,15086,WARRENDALE,NON-UNIQUE,PA,42,42003,ALLEGHENY,150,40.64717864,-80.0953598, ,157,0,93,64,229,1.9.3,10,{96EBB7AC-2CE6-404C-97A8-EBC16ADD2540},59766962.0628052,69085.6094323406
853,15142,PRESTO,NON-UNIQUE,PA,42,42003,ALLEGHENY,151,40.38040138,-80.12099328, ,1037,0,919,118,30,1.9.3,5,{50A22C3C-87AF-4B8F-89F4-05FD32B80F25},55528134.803009,56051.2041670061
858,16056,SAXONBURG,NON-UNIQUE,PA,42,42019,BUTLER,160,40.72386263,-79.83905753, ,2291,249,1700,342,201,1.9.3,7,{C3794FFA-46DD-4A2F-A8FF-46BC033ED71B},4610616.50500488,11655.5698028762
859,15068,NEW KENSINGTON,NON-UNIQUE,PA,42,42129,WESTMORELAND,150,40.55494408,-79.70895869, ,17680,1375,15906,399,1146,1.9.3,12,{EEFF2771-2F98-48DE-9CAC-49F84B3E8679},265661229.958374,105743.970171733
860,15005,BADEN,NON-UNIQUE,PA,42,42007,BEAVER,150,40.64337237,-80.16605706, ,4086,243,3793,50,176,1.9.3,12,{21A801BB-C8D9-4EE7-838E-52470EAEBC48},108462181.269592,65248.6510969309
882,15668,MURRYSVILLE,NON-UNIQUE,PA,42,42129,WESTMORELAND,156,40.46510414,-79.66682253, ,5479,176,5150,153,580,1.9.3,11,{9F5E022A-36CD-4B19-9299-55001E2AD4DA},1402599.81097412,6862.9020266342
883,15642,IRWIN,NON-UNIQUE,PA,42,42129,WESTMORELAND,156,40.30204562,-79.70319636, ,18756,870,17657,229,1111,1.9.3,7,{94796352-FF04-4F83-8620-FCD7904D7C43},2767197.51141357,9596.73993147817
884,15085,TRAFFORD,NON-UNIQUE,PA,42,42129,WESTMORELAND,150,40.38481212,-79.71904635, ,3452,104,3305,43,189,1.9.3,5,{1EAD1C8E-705B-4221-B6BB-D28A573375AB},7857065.70175171,27577.3482191697
886,15089,WEST NEWTON,NON-UNIQUE,PA,42,42129,WESTMORELAND,150,40.21590808,-79.74185899, ,2881,139,2681,61,177,1.9.3,13,{17006982-B31E-4199-B529-CF78EB4BC0C1},9878841.87307739,16765.4534602238
900,15321,CECIL,NON-UNIQUE,PA,42,42125,WASHINGTON,153,40.32301892,-80.18939955, ,796,0,658,138,74,1.9.3,10,{E0DC3A5E-59AC-4686-BD65-AB36B2F6AF97},2149140.99954224,6361.25946114991
903,15241,PITTSBURGH,NON-UNIQUE,PA,42,42003,ALLEGHENY,152,40.33186282,-80.0828404, ,7820,658,7027,135,888,1.9.3,15,{AEE5E07F-EF87-4E93-90E0-F7E81B93CA30},278164623.295044,107057.953426832
905,15332,FINLEYVILLE,NON-UNIQUE,PA,42,42125,WASHINGTON,153,40.23664564,-79.98846347, ,3572,106,3403,63,164,1.9.3,5,{B42E936B-EC34-4D0B-A442-5BAA8E985422},97212110.4023438,71434.507237779
908,15063,MONONGAHELA,NON-UNIQUE,PA,42,42125,WASHINGTON,150,40.20063939,-79.92817274, ,5130,157,4851,122,339,1.9.3,11,{00DD3ADA-FF13-44A8-910C-B7C4BAA97BD8},351730691.150757,124861.803755842
2116,15226,PITTSBURGH,NON-UNIQUE,PA,42,42003,ALLEGHENY,152,40.39597226,-80.01427671, ,6578,603,5908,67,367,1.9.3,11,{09780AB6-B857-4B38-A56A-D6D3581ABFD2},71209724.1869202,56391.6169868657
3732,15207,PITTSBURGH,NON-UNIQUE,PA,42,42003,ALLEGHENY,151,40.398646,-79.933936, ,5309,344,4885,80,221,1.9.3,5,{1224E878-50CE-407F-B26C-8C0345828818},138583447.985352,123893.748783405
4509,15075,RURAL RIDGE,PO BOX,PA,42,42003,ALLEGHENY,150,40.63261124,-79.83747527, ,90,0,1,89,14,1.9.3,5,{C905BDB3-EC1C-4CA0-9E61-2829DF059A4B},1766234.96868896,10219.522126884
8113,15076,RUSSELLTON,NON-UNIQUE,PA,42,42003,ALLEGHENY,150,40.6109096,-79.83650823, ,518,40,344,134,78,1.9.3,15,{E1D40D22-317D-4798-BC57-51EA3506E64D},33472845.4471436,50382.0659747641
26920,15209,PITTSBURGH,NON-UNIQUE,PA,42,42003,ALLEGHENY,152,40.50084865,-79.97402649, ,5733,318,5354,61,344,1.9.3,10,{FF8622D8-3B88-4340-934B-43462715996E},135299105.056824,102525.410051886
26921,16059,VALENCIA,NON-UNIQUE,PA,42,42019,BUTLER,160,40.70351862,-79.93065089, ,3286,0,3088,198,188,1.9.3,11,{FF7EA897-E227-4495-8FE0-C56D26137DCE},22960803.097168,43734.130713055
45053,15243,PITTSBURGH,NON-UNIQUE,PA,42,42003,ALLEGHENY,152,40.37220649,-80.07521033, ,5679,754,4841,84,232,1.9.3,5,{C0BF2DC2-6B9A-45AC-B700-3E7C0508718E},79745207.9130554,62570.0419152844
45054,15231,PITTSBURGH,UNIQUE,PA,42,42003,ALLEGHENY,151,40.4070605,-80.17620598, ,,,,,,1.9.3,15,{48935354-E8B0-4E13-A8D8-A9BB99E1C627},164443903.812683,57397.8559563871
51869,15136,MCKEES ROCKS,NON-UNIQUE,PA,42,42003,ALLEGHENY,151,40.43935,-80.10208, ,9910,678,9056,176,759,1.9.3,11,{54A214A1-E5B3-4F76-9F55-658FB5FF37B3},305410007.909729,133055.028324342
58474,15056,LEETSDALE,NON-UNIQUE,PA,42,42003,ALLEGHENY,150,40.56545938,-80.21316383, ,569,65,471,33,127,1.9.3,5,{D6088F5E-503C-454A-BA51-6581B63067C2},31202664.4022217,29584.0707270578
59289,15045,GLASSPORT,NON-UNIQUE,PA,42,42003,ALLEGHENY,150,40.32654473,-79.886074, ,2155,56,2013,86,140,1.9.3,11,{BD86C225-B5BC-4247-9176-92B850850AC6},48239058.8143005,35487.561486889
60129,15090,WEXFORD,NON-UNIQUE,PA,42,42003,ALLEGHENY,150,40.62165889,-80.06218593, ,7978,685,7121,172,1154,1.9.3,11,{74772505-7194-4A6A-A583-140CD6D0C836},616880023.885681,229706.733716382
60947,15084,TARENTUM,NON-UNIQUE,PA,42,42003,ALLEGHENY,150,40.61473817,-79.80443624, ,4538,346,4134,58,472,1.9.3,6,{C0D9CA0E-168D-40E2-94DE-CE213A464BD3},801919470.864075,262054.982760404
61732,15147,VERONA,NON-UNIQUE,PA,42,42003,ALLEGHENY,151,40.4968904,-79.82986158, ,8048,830,7137,81,386,1.9.3,5,{C8E9D743-01FF-40E1-91A9-E253F403936E},282793003.369751,136677.328949486
63755,15238,PITTSBURGH,NON-UNIQUE,PA,42,42003,ALLEGHENY,152,40.53502586,-79.88243085, ,5995,584,5205,206,967,1.9.3,6,{32CA1374-D3CD-4AF1-940E-E68DFEEA299E},494942216.681091,176753.448990183
65789,15220,PITTSBURGH,NON-UNIQUE,PA,42,42003,ALLEGHENY,152,40.37220649,-80.07521033, ,8442,2526,5865,51,797,1.9.3,5,{A22AF33B-BCD9-4AAB-BE12-C1C27FD451C1},138586135.475494,154703.39141268
65793,15217,PITTSBURGH,NON-UNIQUE,PA,42,42003,ALLEGHENY,152,40.43135754,-79.92139908, ,12495,3165,9119,211,798,1.9.3,15,{FDF46A10-9ECB-443E-AB23-31661B1326A6},110696536.284821,69879.4625500581
65795,15233,PITTSBURGH,NON-UNIQUE,PA,42,42003,ALLEGHENY,152,40.45789522,-80.02901278, ,1690,396,998,296,535,1.9.3,5,{67DC5634-B394-4CF6-92D7-E2C76D3CC29B},46781733.8347778,38545.44035864
65798,15143,SEWICKLEY,NON-UNIQUE,PA,42,42003,ALLEGHENY,,,,,,,,,,,,{E970DB91-0062-40EF-A631-87BF4885FFEA},941746508.190369,163064.909322383
65799,15210,PITTSBURGH,NON-UNIQUE,PA,42,42003,ALLEGHENY,,,,,,,,,,,,{EE7DBADA-FAA2-471A-A5C3-6DDD8D3D89CE},130594332.660492,95748.2168518328
65800,15289,PITTSBURGH,UNIQUE,PA,42,42003,ALLEGHENY,152,40.4430908,-79.95520627, ,11666,6940,4487,239,947,1.9.3,6,{85468FD2-7F65-433B-A15B-7CB4D96B4014},397.601379394531,80.2501473363038
65802,15044,GIBSONIA,NON-UNIQUE,PA,42,42003,ALLEGHENY,,,,,,,,,,,,{D92CD13C-648F-40A4-B132-BFF18ED5815E},1096558606.54236,256823.7860507
65808,15208,PITTSBURGH,NON-UNIQUE,PA,,,,,,,,,,,,,,,{1E4F943C-EA5B-4618-9BD8-91301E733A66},41466498.2698364,43016.8872641251
65809,15222,PITTSBURGH,NON-UNIQUE,PA,,,,,,,,,,,,,,,{E282E9C5-F0FA-4309-8EB9-A262A84EF732},32440064.0779724,41453.4558664802
65810,15108,CORAOPOLIS,NON-UNIQUE,,,,,,,,,,,,,,,,{30C6DF96-2E72-4A5E-8D90-F2B220B36A94},1004425400.18857,273767.88614222
65813,15140,PITCAIRN,NON-UNIQUE,,,,,,,,,,,,,,,,{2D1C07C0-DBD1-4669-8EA9-B8D5274F5E1F},15886553.225647,31166.5161054014
65814,15024,CHESWICK,NON-UNIQUE,,,,,,,,,,,,,,,,{4B4F5D48-E076-4CAF-A08D-2EFD507FFEB5},478947100.124512,211445.214962696
65815,15206,PITTSBURGH,NON-UNIQUE,,,,,,,,,,,,,,,,{54E05A51-0AA5-4929-AA61-3EA8777C138A},138872909.948853,79103.654195151
65816,15037,ELIZABETH,NON-UNIQUE,,,,,,,,,,,,,,,,{9AA90FE0-E9D7-41DF-8A40-2D80A3C9682D},721130546.682037,200531.413615495
65818,15031,CUDDY,NON-UNIQUE,,,,,,,,,,,,,,,,{C27E7FCB-A9FD-4048-A3DC-DACCFAD3E233},26566814.4951782,52747.8995818066
65819,15101,ALLISON PARK,NON-UNIQUE,,,,,,,,,,,,,,,,{D32A2691-6F39-4658-B928-5C21DE015DC7},563607744.681946,208924.983776493
65820,15201,PITTSBURGH,NON-UNIQUE,,,,,,,,,,,,,,,,{DC3F0712-5F19-40C2-9DEF-5F77746BF43F},79550534.1859741,58570.3553522105
65821,15106,CARNEGIE,NON-UNIQUE,,,,,,,,,,,,,,,,{E662DE05-3A97-44D2-B8E1-E8EC1C3A6F00},275347012.788727,126568.91819395
65824,15047,GREENOCK,PO BOX,PA,42,42003,ALLEGHENY,150,40.31121933,-79.79640995, ,163,0,1,162,16,1.9.3,15,{D0843174-66EC-4E75-82B3-87CF445999DA},7581705.48342896,16838.182668178
65825,15071,OAKDALE,NON-UNIQUE,,,,,,,,,,,,,,,,{05FBF04B-C61D-4895-90C0-40F95244EF61},451173459.558105,218541.906612463
65826,15237,PITTSBURGH,NON-UNIQUE,,,,,,,,,,,,,,,,{559E7294-995C-4069-B848-DA84DF1D1BBF},666708650.944946,240488.169773244
65828,15032,CURTISVILLE,PO BOX,PA,42,42003,ALLEGHENY,150,40.61473817,-79.80443624, ,4538,346,4134,58,472,1.9.3,6,{DB50227E-70F4-42B6-8520-7459A48CA185},22681.8500976562,603.211022533371
65833,15218,PITTSBURGH,NON-UNIQUE,,,,,,,,,,,,,,,,{18474869-7ECE-4438-85F9-FB433D8614E1},69162517.6388855,47873.5157166603
65837,15221,PITTSBURGH,NON-UNIQUE,PA,42,42003,ALLEGHENY,152,40.43174313,-79.86487858, ,16040,3486,12256,298,826,1.9.3,11,{FD9F8061-8A24-42E9-B338-E4E0AD2E4902},166123056.744873,95113.5310479246
65839,15205,PITTSBURGH,NON-UNIQUE,PA,42,42003,ALLEGHENY,152,40.43935,-80.10208, ,10831,1718,8997,116,1222,1.9.3,11,{0DA8A3EB-2BBC-4D9A-B932-9C9C9BF5E3E3},385585437.834137,236543.023255541
65841,15202,PITTSBURGH,NON-UNIQUE,PA,42,42003,ALLEGHENY,152,40.4677639,-80.05312347, ,14090,2933,10866,291,961,1.9.3,8,{596780DC-3492-441C-B852-8ED5E8E6875C},146840660.427063,96509.1864107947
65843,15020,BUNOLA,PO BOX,PA,42,42003,ALLEGHENY,150,40.21979141,-79.96302413, ,131,0,1,130,13,1.9.3,12,{7BA41FA5-A08E-4044-838B-38B44C854A22},53379519.6040649,51637.2090277439
65844,15146,MONROEVILLE,NON-UNIQUE,PA,42,42003,ALLEGHENY,151,40.42693174,-79.759102, ,13159,3114,9836,209,1837,1.9.3,16,{87B76932-3DF4-497E-9020-0A81F8E8D5DF},538196342.260712,157578.727104556
65846,15003,AMBRIDGE,NON-UNIQUE,PA,42,42007,BEAVER,150,40.60947689,-80.22024162, ,5481,211,5085,185,474,1.9.3,11,{BEE356E5-9705-415D-AB67-C252703A5708},11563169.9153442,27227.8276222451
65847,15012,BELLE VERNON,NON-UNIQUE,PA,42,42129,WESTMORELAND,150,40.15614,-79.812132,,7110,180,6786,144,651,1.9.3,10,{D5A8A667-20C7-47B4-8888-CDA30298A01B},3551132.18548584,8916.4008057568
65848,15219,PITTSBURGH,NON-UNIQUE,PA,42,42003,ALLEGHENY,,,,,,,,,,,,{74DDFBD0-70A7-418F-AED5-81461B7CAF82},76556518.16922,80002.5808485925
65850,15229,PITTSBURGH,NON-UNIQUE,PA,42,42003,ALLEGHENY,152,40.517189,-80.030806, ,6411,665,5672,74,312,1.9.3,5,{B3A2FEBC-D3DA-476A-A009-D409E4223DB5},116596257.950684,91290.8062356957
65852,15212,PITTSBURGH,NON-UNIQUE,,,,,,,,,,,,,,,,{19490CF1-1635-4D76-B948-A9AF1AC9C9B4},175616416.854431,141895.404435929
65853,15214,PITTSBURGH,NON-UNIQUE,,,,,,,,,,,,,,,,{3B8C6B27-A691-4AF0-BED2-4899B8A9B334},119495953.074463,92562.3995209746
65854,15228,PITTSBURGH,NON-UNIQUE,PA,42,42003,ALLEGHENY,152,40.37072859,-80.04510354, ,7700,1883,5785,32,444,1.9.3,10,{D11EB839-D7AF-4F2E-8473-24536BDF014A},84450065.0866394,72795.0153683614
65857,15120,HOMESTEAD,NON-UNIQUE,PA,42,42003,ALLEGHENY,151,40.39606444,-79.90626658, ,9303,1035,8024,244,651,1.9.3,6,{0633EEA0-5D09-49B1-8B92-F880894F4A82},139153748.084076,60034.8194220893
65858,16229,FREEPORT,NON-UNIQUE,PA,42,42003,WESTMORELAND,150,40.64174598,-79.72652033, ,5339,309,4928,102,399,1.9.3,10,{0D770737-E594-4836-901B-DB980EC8090E},2600855.61334229,9039.70877008616
65859,15065,NATRONA HEIGHTS ,NON-UNIQUE,PA,42,42003,ALLEGHENY,150,40.64174598,-79.72652033, ,,,,,,1.9.3,10,{93963C1A-0FC4-44BF-AAE8-2913DD045455},352042231.252136,110563.180791778
65860,15236,PITTSBURGH,NON-UNIQUE,PA,42,42003,ALLEGHENY,152,40.38282012,-79.94502258, ,13685,2318,11099,268,1035,1.9.3,15,{963EE1DD-4829-4C1A-9603-15A1F371E384},305409663.451996,211157.172252165
65861,15057,MCDONALD,NON-UNIQUE,,,,,,,,,,,,,,,,{B7560012-6F81-4535-8D44-7CBFA9E03AE5},521057244.845245,263092.512031259
65862,15025,CLAIRTON,NON-UNIQUE,PA,42,42003,ALLEGHENY,150,40.28416284,-79.91537341, ,7218,277,6768,173,494,1.9.3,0,{F4C38EAE-66F7-4AE9-8556-63FDBA85AFDF},455822509.395905,179938.14844425
65863,16046,MARS,NON-UNIQUE,PA,42,42003,ALLEGHENY,150,40.62165889,-80.06218593, ,5311,0,4517,794,479,1.9.3,11,{F5EC7236-8135-40FE-9B93-26F2968324A2},95377731.3344727,104705.836187049
65864,15235,PITTSBURGH,NON-UNIQUE,PA,42,42003,ALLEGHENY,152,40.43174313,-79.86487858, ,16040,3486,12256,298,826,1.9.3,11,{46426E84-8EBC-442D-9954-9080DFD28B3F},394292531.936401,195345.645483312
65868,16066,CRANBERRY,NON-UNIQUE,PA,42,42003,BUTLER,150,40.62165889,-80.06218593, ,5311,0,4517,794,479,1.9.3,11,{F451F35B-F7EC-4B55-B5D1-8F4CBC94428F},41870.8895263672,1161.41085581665
65869,15126,IMPERIAL,NON-UNIQUE,PA,42,42003,ALLEGHENY,151,40.4070605,-80.17620598, ,3084,294,2663,127,235,1.9.3,15,{E25B4558-43A8-4731-88D5-70E5B261E9FF},534747709.754456,185685.66690126
65870,15026,CLINTON,NON-UNIQUE,PA,42,42007,BEAVER,150,40.51234159,-80.37390453, ,1457,0,1205,252,90,1.9.3,0,{31910966-809F-42FE-B179-135B2A2CE162},159605872.426056,119194.261596942
